{"timestamp": "2025-03-02T19:01:21.608120", "data": [ {"OBJECT_NAME": "GSAT0227 (GALILEO 30)", "OBJECT_ID": "2024-079C", "EPOCH": "2025-03-01T05:14:13.502112", "MEAN_MOTION": 1.7047484, "ECCENTRICITY": 5.19e-05, "INCLINATION": 54.8275, "RA_OF_ASC_NODE": 114.3117, "ARG_OF_PERICENTER": 181.4581, "MEAN_ANOMALY": 178.6349, "EPHEMERIS_TYPE": 0, "CLASSIFICATION_TYPE": "U", "NORAD_CAT_ID": 59600, "ELEMENT_SET_NO": 999, "REV_AT_EPOCH": 530, "BSTAR": 0, "MEAN_MOTION_DOT": 2.8e-07, "MEAN_MOTION_DDOT": 0, "line1": "1 59600U 24079C   25060.21821183  .00000028  00000+0  00000+0 0  9999", "line2": "2 59600  54.8275 114.3117 0000519 181.4581 178.6349  1.70474840  5305"}, {"OBJECT_NAME": "GSAT0232 (GALILEO 32)", "OBJECT_ID": "2024-167A", "EPOCH": "2025-03-01T05:37:04.192320", "MEAN_MOTION": 1.70473684, "ECCENTRICITY": 0.0002305, "INCLINATION": 55.3457, "RA_OF_ASC_NODE": 234.2872, "ARG_OF_PERICENTER": 176.4195, "MEAN_ANOMALY": 28.6497, "EPHEMERIS_TYPE": 0, "CLASSIFICATION_TYPE": "U", "NORAD_CAT_ID": 61182, "ELEMENT_SET_NO": 999, "REV_AT_EPOCH": 281, "BSTAR": 0, "MEAN_MOTION_DOT": 5e-07, "MEAN_MOTION_DDOT": 0, "line1": "1 61182U 24167A   25060.23407630  .00000050  00000+0  00000+0 0  9999", "line2": "2 61182  55.3457 234.2872 0002305 176.4195  28.6497  1.70473684  2817"}, {"OBJECT_NAME": "GSAT0226 (GALILEO 31)", "OBJECT_ID": "2024-167B", "EPOCH": "2025-03-02T04:35:38.491008", "MEAN_MOTION": 1.70473734, "ECCENTRICITY": 0.0002111, "INCLINATION": 55.3442, "RA_OF_ASC_NODE": 234.2665, "ARG_OF_PERICENTER": 117.1281, "MEAN_ANOMALY": 68.0336, "EPHEMERIS_TYPE": 0, "CLASSIFICATION_TYPE": "U", "NORAD_CAT_ID": 61183, "ELEMENT_SET_NO": 999, "REV_AT_EPOCH": 282, "BSTAR": 0, "MEAN_MOTION_DOT": 4.8e-07, "MEAN_MOTION_DDOT": 0, "line1": "1 61183U 24167B   25061.19141772  .00000048  00000+0  00000+0 0  9995", "line2": "2 61183  55.3442 234.2665 0002111 117.1281  68.0336  1.70473734  2822"}, {"OBJECT_NAME": "BEIDOU-3 M25 (C47)", "OBJECT_ID": "2024-168B", "EPOCH": "2025-03-01T03:16:38.766720", "MEAN_MOTION": 1.86229791, "ECCENTRICITY": 0.0004795, "INCLINATION": 54.8825, "RA_OF_ASC_NODE": 318.6291, "ARG_OF_PERICENTER": 306.0737, "MEAN_ANOMALY": 236.6818, "EPHEMERIS_TYPE": 0, "CLASSIFICATION_TYPE": "U", "NORAD_CAT_ID": 61186, "ELEMENT_SET_NO": 999, "REV_AT_EPOCH": 297, "BSTAR": 0, "MEAN_MOTION_DOT": -5e-07, "MEAN_MOTION_DDOT": 0, "line1": "1 61186U 24168B   25060.13655980 -.00000050  00000+0  00000+0 0  9997", "line2": "2 61186  54.8825 318.6291 0004795 306.0737 236.6818  1.86229791  2974"}, {"OBJECT_NAME": "BEIDOU-3 M27 (C49)", "OBJECT_ID": "2024-168C", "EPOCH": "2025-03-01T10:53:55.559328", "MEAN_MOTION": 1.86229987, "ECCENTRICITY": 0.0002894, "INCLINATION": 54.8778, "RA_OF_ASC_NODE": 318.6029, "ARG_OF_PERICENTER": 1.4396, "MEAN_ANOMALY": 169.0621, "EPHEMERIS_TYPE": 0, "CLASSIFICATION_TYPE": "U", "NORAD_CAT_ID": 61187, "ELEMENT_SET_NO": 999, "REV_AT_EPOCH": 45, "BSTAR": 0, "MEAN_MOTION_DOT": -5.2e-07, "MEAN_MOTION_DDOT": 0, "line1": "1 61187U 24168C   25060.45411527 -.00000052  00000+0  00000+0 0  9992", "line2": "2 61187  54.8778 318.6029 0002894   1.4396 169.0621  1.86229987   455"}, {"OBJECT_NAME": "GPS BIII-7  (PRN 01)", "OBJECT_ID": "2024-242A", "EPOCH": "2025-02-28T08:35:12.616224", "MEAN_MOTION": 2.00556138, "ECCENTRICITY": 0.0004649, "INCLINATION": 54.9923, "RA_OF_ASC_NODE": 353.3668, "ARG_OF_PERICENTER": 316.4793, "MEAN_ANOMALY": 162.7363, "EPHEMERIS_TYPE": 0, "CLASSIFICATION_TYPE": "U", "NORAD_CAT_ID": 62339, "ELEMENT_SET_NO": 999, "REV_AT_EPOCH": 175, "BSTAR": 0, "MEAN_MOTION_DOT": -7.9e-07, "MEAN_MOTION_DDOT": 0, "line1": "1 62339U 24242A   25059.35778491 -.00000079  00000+0  00000+0 0  9997", "line2": "2 62339  54.9923 353.3668 0004649 316.4793 162.7363  2.00556138  1758"}, {"OBJECT_NAME": "NVS-02 (IRNSS-1K)", "OBJECT_ID": "2025-020A", "EPOCH": "2025-03-02T00:17:09.799008", "MEAN_MOTION": 2.17039801, "ECCENTRICITY": 0.7396641, "INCLINATION": 20.9083, "RA_OF_ASC_NODE": 71.0321, "ARG_OF_PERICENTER": 199.3651, "MEAN_ANOMALY": 101.3353, "EPHEMERIS_TYPE": 0, "CLASSIFICATION_TYPE": "U", "NORAD_CAT_ID": 62850, "ELEMENT_SET_NO": 999, "REV_AT_EPOCH": 69, "BSTAR": 0.00025092, "MEAN_MOTION_DOT": 5.215e-05, "MEAN_MOTION_DDOT": -7.1343e-07, "line1": "1 62850U 25020A   25061.01191897  .00005215 -71343-6  25092-3 0  9999", "line2": "2 62850  20.9083  71.0321 7396641 199.3651 101.3353  2.17039801   691"}]}